#aV2012  9 18  0  0  0.00000000     288 DD+AD WGS84 FIT  NGA
## 1706 172800.00000000   300.00000000 56188 0.0000000000000
+   31     1  2  3  4  5  6  7  8  9 10 11 12 13 14 15 16 17
+         18 19 20 21 22 23 25 26 27 28 29 30 31 32  0  0  0
+          0  0  0  0  0  0  0  0  0  0  0  0  0  0  0  0  0
+          0  0  0  0  0  0  0  0  0  0  0  0  0  0  0  0  0
+          0  0  0  0  0  0  0  0  0  0  0  0  0  0  0  0  0
++         2  2  2  2  2  2  2  2  2  2  2  2  2  2  2  2  2
++         2  2  2  2  2  2  2  2  2  2  2  2  2  2  2  0  0
++         0  0  0  0  0  0  0  0  0  0  0  0  0  0  0  0  0
++         0  0  0  0  0  0  0  0  0  0  0  0  0  0  0  0  0
++         0  0  0  0  0  0  0  0  0  0  0  0  0  0  0  0  0
%c cc cc ccc ccc cccc cccc cccc cccc ccccc ccccc ccccc ccccc
%c cc cc ccc ccc cccc cccc cccc cccc ccccc ccccc ccccc ccccc
%f  0.0000000  0.000000000  0.00000000000  0.000000000000000
%f  0.0000000  0.000000000  0.00000000000  0.000000000000000
%i    0    0    0    0      0      0      0      0         0
%i    0    0    0    0      0      0      0      0         0
/*      NGA, ST. LOUIS,MO.                                  
/*   EPHEMERIS COMPUTED FROM  1 DAYS OF DATA
/*   EPOCHA SMOOTHER  
/* CCCCCCCCCCCCCCCCCCCCCCCCCCCCCCCCCCCCCCCCCCCCCCCCCCCCCCCCC
*  2012  9 18 10 55  0.00000000                                                 
P  1 -16060.382824 -13745.090379 -16127.729285    274.160361                    
V  1  20486.091724   1111.949009 -21315.039663      0.015422                    
P  2  -6990.118828  14657.538795  21095.340026    403.284854                    
V  2 -26272.139301  -4313.019561  -6255.216793      0.011891                    
P  3   7416.240183 -24230.357861  -8008.658372    103.219413                    
V  3   7975.976966  -6468.950857  28988.863812      0.049830                    
P  4 -21296.393641   7296.607368  14066.494316    308.039418                    
V  4 -17686.086923  -5151.709534 -23354.486610      0.112240                    
P  5   -188.604509  23433.651446  12352.397832   -352.911509                    
V  5  -8332.129735 -13678.686759  25915.759109     -0.029742                    
P  6  13008.735095 -22709.772546  -3261.315852    -32.914923                    
V  6   5561.765638  -1373.678010  31093.814237     -0.086452                    
P  7 -25463.925859  -7004.538572   4058.592121    123.390723                    
V  7   5333.262066  -1194.343736  31358.592672      0.042760                    
P  8 -25228.068399   -371.689490  -9132.277374      2.191271                    
V  8 -10885.408107  -3842.953927  29377.855731      0.000731                    
P  9  11196.237254  14706.299259 -19599.585831    186.359892                    
V  9 -23572.007354  -2404.455196 -15777.538691      0.025637                    
P 10 -12852.224534   9115.978539  21076.285855    -52.180803                    
V 10 -10296.217560 -25493.691024   5091.300841     -0.012993                    
P 11 -10659.190709 -14795.447665 -19795.545387   -303.935997                    
V 11  24121.771480  -4620.592314  -9425.318940     -0.038925                    
P 12  11668.882153  23582.903808   4297.610372     91.547178                    
V 12      6.591962   5788.010043 -31458.807032      0.020335                    
P 13 -16238.902606  -2965.466097  20699.322956    180.330158                    
V 13  17877.132829 -19571.285216  11039.920025     -0.026119                    
P 14  20830.206715 -12563.378116 -10285.926924    212.919730                    
V 14  -7377.274656  11372.562787 -28443.200001      0.008896                    
P 15   1595.610630  19443.463731 -17927.618014    -95.579212                    
V 15 -15377.963077  17073.847853  17374.709076     -0.006987                    
P 16    951.775588 -23174.261785  12644.141913   -246.261853                    
V 16   7135.601148  14621.317193  26550.737899     -0.007840                    
P 17 -20539.523273  12832.181127 -10438.567690     95.436833                    
V 17   6847.635350 -12044.111602 -28031.183805     -0.033217                    
P 18  17565.680391   8513.029562 -17784.862828    215.535069                    
V 18   6614.837052  22454.853658  16567.042282      0.018103                    
P 19   2187.906147 -19878.059679 -17342.423091   -304.948253                    
V 19  16592.668530 -14641.981668  19344.150504     -0.035119                    
P 20 -14559.676874 -21392.833634   5987.938069     68.463269                    
V 20     78.187163  -8621.633873 -29745.335080      0.008086                    
P 21  26335.822035   5212.247347   1603.400396   -250.430120                    
V 21  -1878.110548   2964.729670  30657.730497     -0.024096                    
P 22  14087.090513  -7432.052300 -21058.807693    147.995441                    
V 22  10133.785959  25383.031367  -2286.930011      0.004137                    
P 23  -8092.100873 -13703.380887  21260.767851    163.304407                    
V 23  17638.750216 -20384.349659  -6822.788301     -0.039203                    
P 25  16777.207091  14248.641686  14868.179082     43.246597                    
V 25   5410.383115  18208.880330 -23429.197313      0.013079                    
P 26 -10498.620735  21822.382132 -11095.706181   -276.624330                    
V 26 -10562.491752   8246.903456  28120.696881      0.131199                    
P 27   7998.474757  14524.775387 -20282.894548    432.596064                    
V 27 -26822.135368  -2380.822759 -11421.811050      0.041097                    
P 28 -14331.064575   2877.820917 -21627.279295    186.582235                    
V 28  -9105.722836 -27272.365143   2138.206297      0.038392                    
P 29  14250.903883   6395.392196  21529.293254    356.788913                    
V 29 -17513.175787  20828.940160   5460.200785      0.041745                    
P 30   6881.031634 -16288.231767  19465.526486   -407.146115                    
V 30  12850.399094  22057.422213  13643.524998      0.192611                    
P 31  18930.902617  -8325.389444  16995.839812    275.184129                    
V 31  20578.561739   4693.631384 -20615.996870      0.025113                    
P 32  -6894.847359 -25899.569853  -1092.003271   -489.170442                    
V 32   3057.524205    755.640877 -31168.984843     -0.040798                    
EOF
